{"type":"FeatureCollection","features":[{"type":"Feature","geometry":{"type":"Point","coordinates":[132.45064,34.377865]},"properties":{"指定緊急避難場所":"吉島公園","所在地":"広島県広島市中区羽衣町16","洪水":"","がけ崩れ、土石流及び地滑り":"","高潮":"","地震":"◎","津波":"","大規模な火事":"◎","内水氾濫":"","火山現象":""}},{"type":"Feature","geometry":{"type":"Point","coordinates":[132.450924,34.377451]},"properties":{"指定緊急避難場所":"中島集会所","所在地":"広島県広島市中区羽衣町16-15","洪水":"◎","がけ崩れ、土石流及び地滑り":"◎","高潮":"","地震":"","津波":"","大規模な火事":"","内水氾濫":"","火山現象":""}},{"type":"Feature","geometry":{"type":"Point","coordinates":[132.446144,34.397281]},"properties":{"指定緊急避難場所":"本川・広瀬集会所","所在地":"広島県広島市中区榎町2-2","洪水":"◎","がけ崩れ、土石流及び地滑り":"◎","高潮":"◎","地震":"","津波":"","大規模な火事":"","内水氾濫":"","火山現象":""}},{"type":"Feature","geometry":{"type":"Point","coordinates":[132.448019,34.386796]},"properties":{"指定緊急避難場所":"中島小学校","所在地":"広島県広島市中区加古町10-8","洪水":"◎","がけ崩れ、土石流及び地滑り":"◎","高潮":"◎","地震":"◎","津波":"","大規模な火事":"","内水氾濫":"","火山現象":""}},{"type":"Feature","geometry":{"type":"Point","coordinates":[132.448856,34.388766]},"properties":{"指定緊急避難場所":"文化交流会館（広島文化学園ＨＢＧホール）","所在地":"広島県広島市中区加古町3-3","洪水":"◎","がけ崩れ、土石流及び地滑り":"◎","高潮":"◎","地震":"","津波":"","大規模な火事":"","内水氾濫":"","火山現象":""}},{"type":"Feature","geometry":{"type":"Point","coordinates":[132.447969,34.387619]},"properties":{"指定緊急避難場所":"アステールプラザ（ＪＭＳアステールプラザ）","所在地":"広島県広島市中区加古町4-17","洪水":"◎","がけ崩れ、土石流及び地滑り":"◎","高潮":"◎","地震":"","津波":"","大規模な火事":"","内水氾濫":"","火山現象":""}},{"type":"Feature","geometry":{"type":"Point","coordinates":[132.455805,34.401125]},"properties":{"指定緊急避難場所":"中央公園広場エリア","所在地":"広島県広島市中区基町15","洪水":"","がけ崩れ、土石流及び地滑り":"","高潮":"","地震":"◎","津波":"◎","大規模な火事":"◎","内水氾濫":"","火山現象":""}},{"type":"Feature","geometry":{"type":"Point","coordinates":[132.45375,34.401663]},"properties":{"指定緊急避難場所":"広島サッカースタジアム（エディオンピースウイング広島）","所在地":"広島県広島市中区基町15-2-1","洪水":"◎","がけ崩れ、土石流及び地滑り":"◎","高潮":"◎","地震":"◎","津波":"◎","大規模な火事":"","内水氾濫":"","火山現象":""}},{"type":"Feature","geometry":{"type":"Point","coordinates":[132.45628,34.404004]},"properties":{"指定緊急避難場所":"基町中央集会所","所在地":"広島県広島市中区基町19-6","洪水":"◎","がけ崩れ、土石流及び地滑り":"◎","高潮":"◎","地震":"","津波":"","大規模な火事":"","内水氾濫":"","火山現象":""}},{"type":"Feature","geometry":{"type":"Point","coordinates":[132.455989,34.403648]},"properties":{"指定緊急避難場所":"基町児童館","所在地":"広島県広島市中区基町19-7","洪水":"◎","がけ崩れ、土石流及び地滑り":"◎","高潮":"◎","地震":"","津波":"","大規模な火事":"","内水氾濫":"","火山現象":""}},{"type":"Feature","geometry":{"type":"Point","coordinates":[132.456411,34.402589]},"properties":{"指定緊急避難場所":"基町小学校","所在地":"広島県広島市中区基町20-2","洪水":"◎","がけ崩れ、土石流及び地滑り":"◎","高潮":"◎","地震":"◎","津波":"◎","大規模な火事":"","内水氾濫":"","火山現象":""}},{"type":"Feature","geometry":{"type":"Point","coordinates":[132.456279,34.403138]},"properties":{"指定緊急避難場所":"基町幼稚園","所在地":"広島県広島市中区基町20-3","洪水":"","がけ崩れ、土石流及び地滑り":"◎","高潮":"◎","地震":"","津波":"","大規模な火事":"","内水氾濫":"","火山現象":""}},{"type":"Feature","geometry":{"type":"Point","coordinates":[132.455979,34.402345]},"properties":{"指定緊急避難場所":"基町保育園","所在地":"広島県広島市中区基町20-5","洪水":"◎","がけ崩れ、土石流及び地滑り":"◎","高潮":"◎","地震":"","津波":"","大規模な火事":"","内水氾濫":"","火山現象":""}},{"type":"Feature","geometry":{"type":"Point","coordinates":[132.46021,34.401559]},"properties":{"指定緊急避難場所":"広島城跡","所在地":"広島県広島市中区基町21","洪水":"","がけ崩れ、土石流及び地滑り":"","高潮":"","地震":"◎","津波":"◎","大規模な火事":"◎","内水氾濫":"","火山現象":""}},{"type":"Feature","geometry":{"type":"Point","coordinates":[132.454895,34.397236]},"properties":{"指定緊急避難場所":"旧広島市民球場跡地イベント広場（ひろしまゲートパークプラザ）","所在地":"広島県広島市中区基町5","洪水":"","がけ崩れ、土石流及び地滑り":"","高潮":"","地震":"◎","津波":"","大規模な火事":"◎","内水氾濫":"","火山現象":""}},{"type":"Feature","geometry":{"type":"Point","coordinates":[132.450821,34.368295]},"properties":{"指定緊急避難場所":"吉島東集会所","所在地":"広島県広島市中区吉島新町2-9-1","洪水":"◎","がけ崩れ、土石流及び地滑り":"◎","高潮":"","地震":"","津波":"","大規模な火事":"","内水氾濫":"","火山現象":""}},{"type":"Feature","geometry":{"type":"Point","coordinates":[132.446186,34.371027]},"properties":{"指定緊急避難場所":"吉島公民館（吉島集会所含む。）","所在地":"広島県広島市中区吉島西3-2-10","洪水":"◎","がけ崩れ、土石流及び地滑り":"◎","高潮":"◎","地震":"","津波":"","大規模な火事":"","内水氾濫":"","火山現象":""}},{"type":"Feature","geometry":{"type":"Point","coordinates":[132.44608,34.370722]},"properties":{"指定緊急避難場所":"吉島体育館","所在地":"広島県広島市中区吉島西3-2-11","洪水":"◎","がけ崩れ、土石流及び地滑り":"◎","高潮":"◎","地震":"","津波":"","大規模な火事":"","内水氾濫":"","火山現象":""}},{"type":"Feature","geometry":{"type":"Point","coordinates":[132.445772,34.371344]},"properties":{"指定緊急避難場所":"吉島保育園","所在地":"広島県広島市中区吉島西3-3-10","洪水":"◎","がけ崩れ、土石流及び地滑り":"◎","高潮":"◎","地震":"","津波":"","大規模な火事":"","内水氾濫":"","火山現象":""}},{"type":"Feature","geometry":{"type":"Point","coordinates":[132.445308,34.370825]},"properties":{"指定緊急避難場所":"吉島児童館","所在地":"広島県広島市中区吉島西3-4-25","洪水":"◎","がけ崩れ、土石流及び地滑り":"◎","高潮":"","地震":"","津波":"","大規模な火事":"","内水氾濫":"","火山現象":""}},{"type":"Feature","geometry":{"type":"Point","coordinates":[132.445055,34.372044]},"properties":{"指定緊急避難場所":"吉島小学校","所在地":"広島県広島市中区吉島西3-4-60","洪水":"◎","がけ崩れ、土石流及び地滑り":"◎","高潮":"◎","地震":"◎","津波":"","大規模な火事":"","内水氾濫":"","火山現象":""}},{"type":"Feature","geometry":{"type":"Point","coordinates":[132.445331,34.377807]},"properties":{"指定緊急避難場所":"広島刑務所","所在地":"広島県広島市中区吉島町13-114","洪水":"◎","がけ崩れ、土石流及び地滑り":"◎","高潮":"◎","地震":"","津波":"","大規模な火事":"","内水氾濫":"","火山現象":""}},{"type":"Feature","geometry":{"type":"Point","coordinates":[132.448619,34.369364]},"properties":{"指定緊急避難場所":"吉島福祉センター","所在地":"広島県広島市中区吉島東2-17-30","洪水":"◎","がけ崩れ、土石流及び地滑り":"◎","高潮":"◎","地震":"","津波":"","大規模な火事":"","内水氾濫":"","火山現象":""}},{"type":"Feature","geometry":{"type":"Point","coordinates":[132.451865,34.371304]},"properties":{"指定緊急避難場所":"吉島東公園","所在地":"広島県広島市中区吉島東3-1","洪水":"","がけ崩れ、土石流及び地滑り":"","高潮":"","地震":"◎","津波":"","大規模な火事":"","内水氾濫":"","火山現象":""}},{"type":"Feature","geometry":{"type":"Point","coordinates":[132.452278,34.369931]},"properties":{"指定緊急避難場所":"吉島中学校","所在地":"広島県広島市中区吉島東3-1-1","洪水":"◎","がけ崩れ、土石流及び地滑り":"◎","高潮":"◎","地震":"","津波":"","大規模な火事":"","内水氾濫":"","火山現象":""}},{"type":"Feature","geometry":{"type":"Point","coordinates":[132.453121,34.369252]},"properties":{"指定緊急避難場所":"吉島東児童館","所在地":"広島県広島市中区吉島東3-2-7","洪水":"◎","がけ崩れ、土石流及び地滑り":"◎","高潮":"","地震":"","津波":"","大規模な火事":"","内水氾濫":"","火山現象":""}},{"type":"Feature","geometry":{"type":"Point","coordinates":[132.452626,34.368435]},"properties":{"指定緊急避難場所":"吉島東小学校","所在地":"広島県広島市中区吉島東3-2-7","洪水":"◎","がけ崩れ、土石流及び地滑り":"◎","高潮":"◎","地震":"◎","津波":"","大規模な火事":"","内水氾濫":"","火山現象":""}},{"type":"Feature","geometry":{"type":"Point","coordinates":[132.445453,34.366647]},"properties":{"指定緊急避難場所":"光南集会所","所在地":"広島県広島市中区光南3-1-6","洪水":"◎","がけ崩れ、土石流及び地滑り":"◎","高潮":"","地震":"","津波":"","大規模な火事":"","内水氾濫":"","火山現象":""}},{"type":"Feature","geometry":{"type":"Point","coordinates":[132.446687,34.400946]},"properties":{"指定緊急避難場所":"広瀬小学校","所在地":"広島県広島市中区広瀬町2-8","洪水":"◎","がけ崩れ、土石流及び地滑り":"◎","高潮":"◎","地震":"◎","津波":"","大規模な火事":"","内水氾濫":"","火山現象":""}},{"type":"Feature","geometry":{"type":"Point","coordinates":[132.447228,34.402242]},"properties":{"指定緊急避難場所":"広瀬集会所","所在地":"広島県広島市中区広瀬北町6-1","洪水":"◎","がけ崩れ、土石流及び地滑り":"◎","高潮":"◎","地震":"","津波":"","大規模な火事":"","内水氾濫":"","火山現象":""}},{"type":"Feature","geometry":{"type":"Point","coordinates":[132.427388,34.364974]},"properties":{"指定緊急避難場所":"江波栄町集会所","所在地":"広島県広島市中区江波栄町6-16","洪水":"◎","がけ崩れ、土石流及び地滑り":"◎","高潮":"◎","地震":"","津波":"","大規模な火事":"","内水氾濫":"","火山現象":""}},{"type":"Feature","geometry":{"type":"Point","coordinates":[132.435669,34.373528]},"properties":{"指定緊急避難場所":"江波中学校","所在地":"広島県広島市中区江波西1-1-13","洪水":"◎","がけ崩れ、土石流及び地滑り":"◎","高潮":"◎","地震":"","津波":"","大規模な火事":"","内水氾濫":"","火山現象":""}},{"type":"Feature","geometry":{"type":"Point","coordinates":[132.43793,34.373792]},"properties":{"指定緊急避難場所":"江波東集会所（舟入江波町民会館）","所在地":"広島県広島市中区江波東1-6-2","洪水":"◎","がけ崩れ、土石流及び地滑り":"◎","高潮":"","地震":"","津波":"","大規模な火事":"","内水氾濫":"","火山現象":""}},{"type":"Feature","geometry":{"type":"Point","coordinates":[132.438445,34.370159]},"properties":{"指定緊急避難場所":"江波第二保育園","所在地":"広島県広島市中区江波東2-2-2","洪水":"◎","がけ崩れ、土石流及び地滑り":"◎","高潮":"◎","地震":"","津波":"","大規模な火事":"","内水氾濫":"","火山現象":""}},{"type":"Feature","geometry":{"type":"Point","coordinates":[132.43843,34.370222]},"properties":{"指定緊急避難場所":"江波児童館","所在地":"広島県広島市中区江波東2-2-2","洪水":"◎","がけ崩れ、土石流及び地滑り":"◎","高潮":"◎","地震":"","津波":"","大規模な火事":"","内水氾濫":"","火山現象":""}},{"type":"Feature","geometry":{"type":"Point","coordinates":[132.437759,34.365851]},"properties":{"指定緊急避難場所":"江波保育園","所在地":"広島県広島市中区江波南1-21-16","洪水":"◎","がけ崩れ、土石流及び地滑り":"◎","高潮":"◎","地震":"","津波":"","大規模な火事":"","内水氾濫":"","火山現象":""}},{"type":"Feature","geometry":{"type":"Point","coordinates":[132.434309,34.367233]},"properties":{"指定緊急避難場所":"江波集会所","所在地":"広島県広島市中区江波南1-7-19","洪水":"◎","がけ崩れ、土石流及び地滑り":"◎","高潮":"◎","地震":"","津波":"","大規模な火事":"","内水氾濫":"","火山現象":""}},{"type":"Feature","geometry":{"type":"Point","coordinates":[132.433423,34.364628]},"properties":{"指定緊急避難場所":"江波小学校","所在地":"広島県広島市中区江波南2-2-53","洪水":"◎","がけ崩れ、土石流及び地滑り":"◎","高潮":"◎","地震":"◎","津波":"◎","大規模な火事":"","内水氾濫":"","火山現象":""}},{"type":"Feature","geometry":{"type":"Point","coordinates":[132.433516,34.363441]},"properties":{"指定緊急避難場所":"江波南集会所","所在地":"広島県広島市中区江波南2-8-1","洪水":"◎","がけ崩れ、土石流及び地滑り":"◎","高潮":"◎","地震":"","津波":"","大規模な火事":"","内水氾濫":"","火山現象":""}},{"type":"Feature","geometry":{"type":"Point","coordinates":[132.432311,34.371286]},"properties":{"指定緊急避難場所":"江波皿山公園","所在地":"広島県広島市中区江波二本松1-1","洪水":"","がけ崩れ、土石流及び地滑り":"","高潮":"","地震":"◎","津波":"◎","大規模な火事":"","内水氾濫":"","火山現象":""}},{"type":"Feature","geometry":{"type":"Point","coordinates":[132.433845,34.365323]},"properties":{"指定緊急避難場所":"江波山公園","所在地":"広島県広島市中区江波二本松2-11","洪水":"","がけ崩れ、土石流及び地滑り":"","高潮":"","地震":"◎","津波":"◎","大規模な火事":"","内水氾濫":"","火山現象":""}},{"type":"Feature","geometry":{"type":"Point","coordinates":[132.432906,34.366966]},"properties":{"指定緊急避難場所":"江波二本松集会所","所在地":"広島県広島市中区江波二本松2-4-20","洪水":"◎","がけ崩れ、土石流及び地滑り":"◎","高潮":"◎","地震":"","津波":"","大規模な火事":"","内水氾濫":"","火山現象":""}},{"type":"Feature","geometry":{"type":"Point","coordinates":[132.458374,34.385553]},"properties":{"指定緊急避難場所":"国泰寺中学校","所在地":"広島県広島市中区国泰寺町1-1-41","洪水":"◎","がけ崩れ、土石流及び地滑り":"◎","高潮":"◎","地震":"","津波":"","大規模な火事":"","内水氾濫":"","火山現象":""}},{"type":"Feature","geometry":{"type":"Point","coordinates":[132.45606,34.387516]},"properties":{"指定緊急避難場所":"袋町学区会館（国泰寺集会所）","所在地":"広島県広島市中区国泰寺町1-3-31","洪水":"◎","がけ崩れ、土石流及び地滑り":"◎","高潮":"","地震":"","津波":"","大規模な火事":"","内水氾濫":"","火山現象":""}},{"type":"Feature","geometry":{"type":"Point","coordinates":[132.439383,34.385122]},"properties":{"指定緊急避難場所":"神崎南集会所","所在地":"広島県広島市中区舟入幸町14-14","洪水":"◎","がけ崩れ、土石流及び地滑り":"◎","高潮":"◎","地震":"","津波":"","大規模な火事":"","内水氾濫":"","火山現象":""}},{"type":"Feature","geometry":{"type":"Point","coordinates":[132.439179,34.385084]},"properties":{"指定緊急避難場所":"舟入児童館","所在地":"広島県広島市中区舟入幸町14-16","洪水":"◎","がけ崩れ、土石流及び地滑り":"◎","高潮":"","地震":"","津波":"","大規模な火事":"","内水氾濫":"","火山現象":""}},{"type":"Feature","geometry":{"type":"Point","coordinates":[132.443727,34.381084]},"properties":{"指定緊急避難場所":"舟入公民館","所在地":"広島県広島市中区舟入川口町2-8","洪水":"◎","がけ崩れ、土石流及び地滑り":"◎","高潮":"◎","地震":"","津波":"","大規模な火事":"","内水氾濫":"","火山現象":""}},{"type":"Feature","geometry":{"type":"Point","coordinates":[132.445462,34.38735]},"properties":{"指定緊急避難場所":"神崎小学校","所在地":"広島県広島市中区舟入中町1-36","洪水":"◎","がけ崩れ、土石流及び地滑り":"◎","高潮":"◎","地震":"◎","津波":"","大規模な火事":"","内水氾濫":"","火山現象":""}},{"type":"Feature","geometry":{"type":"Point","coordinates":[132.440202,34.379285]},"properties":{"指定緊急避難場所":"舟入高等学校","所在地":"広島県広島市中区舟入南1-4-4","洪水":"◎","がけ崩れ、土石流及び地滑り":"◎","高潮":"◎","地震":"","津波":"","大規模な火事":"","内水氾濫":"","火山現象":""}},{"type":"Feature","geometry":{"type":"Point","coordinates":[132.437827,34.379732]},"properties":{"指定緊急避難場所":"舟入小学校","所在地":"広島県広島市中区舟入南2-9-48","洪水":"◎","がけ崩れ、土石流及び地滑り":"◎","高潮":"◎","地震":"◎","津波":"","大規模な火事":"","内水氾濫":"","火山現象":""}},{"type":"Feature","geometry":{"type":"Point","coordinates":[132.44092,34.377019]},"properties":{"指定緊急避難場所":"舟入南集会所","所在地":"広島県広島市中区舟入南4-1-55","洪水":"◎","がけ崩れ、土石流及び地滑り":"◎","高潮":"","地震":"","津波":"","大規模な火事":"","内水氾濫":"","火山現象":""}},{"type":"Feature","geometry":{"type":"Point","coordinates":[132.438462,34.375461]},"properties":{"指定緊急避難場所":"舟入保育園","所在地":"広島県広島市中区舟入南4-18-21","洪水":"◎","がけ崩れ、土石流及び地滑り":"◎","高潮":"","地震":"","津波":"","大規模な火事":"","内水氾濫":"","火山現象":""}},{"type":"Feature","geometry":{"type":"Point","coordinates":[132.444909,34.385148]},"properties":{"指定緊急避難場所":"神崎保育園","所在地":"広島県広島市中区舟入本町2-31","洪水":"◎","がけ崩れ、土石流及び地滑り":"◎","高潮":"◎","地震":"","津波":"","大規模な火事":"","内水氾濫":"","火山現象":""}},{"type":"Feature","geometry":{"type":"Point","coordinates":[132.467648,34.400477]},"properties":{"指定緊急避難場所":"縮景園","所在地":"広島県広島市中区上幟町2","洪水":"","がけ崩れ、土石流及び地滑り":"","高潮":"","地震":"◎","津波":"","大規模な火事":"◎","内水氾濫":"","火山現象":""}},{"type":"Feature","geometry":{"type":"Point","coordinates":[132.468435,34.398916]},"properties":{"指定緊急避難場所":"幟町中学校","所在地":"広島県広島市中区上幟町6-29","洪水":"◎","がけ崩れ、土石流及び地滑り":"◎","高潮":"◎","地震":"","津波":"","大規模な火事":"","内水氾濫":"","火山現象":""}},{"type":"Feature","geometry":{"type":"Point","coordinates":[132.437516,34.382292]},"properties":{"指定緊急避難場所":"舟入集会所（操会館）","所在地":"広島県広島市中区西川口町15-1","洪水":"◎","がけ崩れ、土石流及び地滑り":"◎","高潮":"","地震":"","津波":"","大規模な火事":"","内水氾濫":"","火山現象":""}},{"type":"Feature","geometry":{"type":"Point","coordinates":[132.458096,34.405505]},"properties":{"指定緊急避難場所":"中央公民館","所在地":"広島県広島市中区西白島町24-36","洪水":"◎","がけ崩れ、土石流及び地滑り":"◎","高潮":"◎","地震":"","津波":"","大規模な火事":"","内水氾濫":"","火山現象":""}},{"type":"Feature","geometry":{"type":"Point","coordinates":[132.45975,34.404648]},"properties":{"指定緊急避難場所":"基町高等学校","所在地":"広島県広島市中区西白島町25-1","洪水":"◎","がけ崩れ、土石流及び地滑り":"◎","高潮":"◎","地震":"","津波":"","大規模な火事":"","内水氾濫":"","火山現象":""}},{"type":"Feature","geometry":{"type":"Point","coordinates":[132.461616,34.404725]},"properties":{"指定緊急避難場所":"白島小学校","所在地":"広島県広島市中区西白島町26-3","洪水":"◎","がけ崩れ、土石流及び地滑り":"◎","高潮":"◎","地震":"◎","津波":"◎","大規模な火事":"","内水氾濫":"","火山現象":""}},{"type":"Feature","geometry":{"type":"Point","coordinates":[132.460829,34.403923]},"properties":{"指定緊急避難場所":"白島児童館","所在地":"広島県広島市中区西白島町26-30","洪水":"◎","がけ崩れ、土石流及び地滑り":"◎","高潮":"◎","地震":"","津波":"","大規模な火事":"","内水氾濫":"","火山現象":""}},{"type":"Feature","geometry":{"type":"Point","coordinates":[132.462908,34.40697]},"properties":{"指定緊急避難場所":"白島集会所","所在地":"広島県広島市中区西白島町9-17","洪水":"◎","がけ崩れ、土石流及び地滑り":"◎","高潮":"◎","地震":"","津波":"","大規模な火事":"","内水氾濫":"","火山現象":""}},{"type":"Feature","geometry":{"type":"Point","coordinates":[132.455408,34.376395]},"properties":{"指定緊急避難場所":"千田公園","所在地":"広島県広島市中区千田町3-7","洪水":"","がけ崩れ、土石流及び地滑り":"","高潮":"","地震":"◎","津波":"","大規模な火事":"","内水氾濫":"","火山現象":""}},{"type":"Feature","geometry":{"type":"Point","coordinates":[132.457148,34.375719]},"properties":{"指定緊急避難場所":"中区スポーツセンター（コジマホールディングス中区スポーツセンター）","所在地":"広島県広島市中区千田町3-8-12","洪水":"◎","がけ崩れ、土石流及び地滑り":"◎","高潮":"◎","地震":"","津波":"","大規模な火事":"","内水氾濫":"","火山現象":""}},{"type":"Feature","geometry":{"type":"Point","coordinates":[132.456845,34.375041]},"properties":{"指定緊急避難場所":"工業技術センター","所在地":"広島県広島市中区千田町3-8-24","洪水":"◎","がけ崩れ、土石流及び地滑り":"◎","高潮":"◎","地震":"","津波":"","大規模な火事":"","内水氾濫":"","火山現象":""}},{"type":"Feature","geometry":{"type":"Point","coordinates":[132.457251,34.376299]},"properties":{"指定緊急避難場所":"健康づくりセンター","所在地":"広島県広島市中区千田町3-8-6","洪水":"◎","がけ崩れ、土石流及び地滑り":"◎","高潮":"◎","地震":"","津波":"","大規模な火事":"","内水氾濫":"","火山現象":""}},{"type":"Feature","geometry":{"type":"Point","coordinates":[132.458661,34.391782]},"properties":{"指定緊急避難場所":"袋町小学校（袋町児童館含む）","所在地":"広島県広島市中区袋町6-36","洪水":"◎","がけ崩れ、土石流及び地滑り":"◎","高潮":"◎","地震":"◎","津波":"","大規模な火事":"","内水氾濫":"","火山現象":""}},{"type":"Feature","geometry":{"type":"Point","coordinates":[132.455024,34.392602]},"properties":{"指定緊急避難場所":"大手町第一公園集会所","所在地":"広島県広島市中区大手町2-5-24","洪水":"◎","がけ崩れ、土石流及び地滑り":"◎","高潮":"◎","地震":"","津波":"","大規模な火事":"","内水氾濫":"","火山現象":""}},{"type":"Feature","geometry":{"type":"Point","coordinates":[132.451432,34.386444]},"properties":{"指定緊急避難場所":"広島みらい創生高等学校","所在地":"広島県広島市中区大手町4-4-4","洪水":"◎","がけ崩れ、土石流及び地滑り":"◎","高潮":"◎","地震":"","津波":"","大規模な火事":"","内水氾濫":"","火山現象":""}},{"type":"Feature","geometry":{"type":"Point","coordinates":[132.453341,34.383785]},"properties":{"指定緊急避難場所":"鷹野橋職員会館","所在地":"広島県広島市中区大手町5-6-3","洪水":"◎","がけ崩れ、土石流及び地滑り":"◎","高潮":"◎","地震":"","津波":"","大規模な火事":"","内水氾濫":"","火山現象":""}},{"type":"Feature","geometry":{"type":"Point","coordinates":[132.453263,34.383561]},"properties":{"指定緊急避難場所":"男女共同参画推進センター（ゆいぽーと）","所在地":"広島県広島市中区大手町5-6-9","洪水":"◎","がけ崩れ、土石流及び地滑り":"◎","高潮":"◎","地震":"","津波":"","大規模な火事":"","内水氾濫":"","火山現象":""}},{"type":"Feature","geometry":{"type":"Point","coordinates":[132.45214,34.393082]},"properties":{"指定緊急避難場所":"平和記念公園","所在地":"広島県広島市中区中島町","洪水":"","がけ崩れ、土石流及び地滑り":"","高潮":"","地震":"◎","津波":"","大規模な火事":"◎","内水氾濫":"","火山現象":""}},{"type":"Feature","geometry":{"type":"Point","coordinates":[132.451041,34.392105]},"properties":{"指定緊急避難場所":"広島国際会議場","所在地":"広島県広島市中区中島町1-5","洪水":"◎","がけ崩れ、土石流及び地滑り":"◎","高潮":"◎","地震":"","津波":"","大規模な火事":"","内水氾濫":"","火山現象":""}},{"type":"Feature","geometry":{"type":"Point","coordinates":[132.46623,34.384683]},"properties":{"指定緊急避難場所":"竹屋保育園","所在地":"広島県広島市中区鶴見町11-25","洪水":"◎","がけ崩れ、土石流及び地滑り":"◎","高潮":"","地震":"","津波":"","大規模な火事":"","内水氾濫":"","火山現象":""}},{"type":"Feature","geometry":{"type":"Point","coordinates":[132.466831,34.385752]},"properties":{"指定緊急避難場所":"竹屋小学校","所在地":"広島県広島市中区鶴見町8-49","洪水":"◎","がけ崩れ、土石流及び地滑り":"◎","高潮":"◎","地震":"◎","津波":"","大規模な火事":"","内水氾濫":"","火山現象":""}},{"type":"Feature","geometry":{"type":"Point","coordinates":[132.457859,34.381888]},"properties":{"指定緊急避難場所":"東千田公園","所在地":"広島県広島市中区東千田町1","洪水":"","がけ崩れ、土石流及び地滑り":"","高潮":"","地震":"◎","津波":"","大規模な火事":"◎","内水氾濫":"","火山現象":""}},{"type":"Feature","geometry":{"type":"Point","coordinates":[132.459422,34.379108]},"properties":{"指定緊急避難場所":"千田児童館","所在地":"広島県広島市中区東千田町2-1-23","洪水":"◎","がけ崩れ、土石流及び地滑り":"◎","高潮":"","地震":"","津波":"","大規模な火事":"","内水氾濫":"","火山現象":""}},{"type":"Feature","geometry":{"type":"Point","coordinates":[132.459418,34.379802]},"properties":{"指定緊急避難場所":"千田小学校","所在地":"広島県広島市中区東千田町2-1-34","洪水":"◎","がけ崩れ、土石流及び地滑り":"◎","高潮":"◎","地震":"◎","津波":"","大規模な火事":"","内水氾濫":"","火山現象":""}},{"type":"Feature","geometry":{"type":"Point","coordinates":[132.442267,34.358435]},"properties":{"指定緊急避難場所":"環境局中工場","所在地":"広島県広島市中区南吉島1-5-1","洪水":"◎","がけ崩れ、土石流及び地滑り":"◎","高潮":"◎","地震":"","津波":"","大規模な火事":"","内水氾濫":"","火山現象":""}},{"type":"Feature","geometry":{"type":"Point","coordinates":[132.44323,34.360847]},"properties":{"指定緊急避難場所":"南吉島集会所","所在地":"広島県広島市中区南吉島2-1-50","洪水":"◎","がけ崩れ、土石流及び地滑り":"◎","高潮":"","地震":"","津波":"","大規模な火事":"","内水氾濫":"","火山現象":""}},{"type":"Feature","geometry":{"type":"Point","coordinates":[132.455827,34.374329]},"properties":{"指定緊急避難場所":"南千田西集会所","所在地":"広島県広島市中区南千田西町2-10","洪水":"◎","がけ崩れ、土石流及び地滑り":"◎","高潮":"","地震":"","津波":"","大規模な火事":"","内水氾濫":"","火山現象":""}},{"type":"Feature","geometry":{"type":"Point","coordinates":[132.460865,34.377603]},"properties":{"指定緊急避難場所":"千田学区集会所","所在地":"広島県広島市中区平野町11-10","洪水":"◎","がけ崩れ、土石流及び地滑り":"◎","高潮":"◎","地震":"","津波":"","大規模な火事":"","内水氾濫":"","火山現象":""}},{"type":"Feature","geometry":{"type":"Point","coordinates":[132.463264,34.385492]},"properties":{"指定緊急避難場所":"竹屋公民館","所在地":"広島県広島市中区宝町3-15","洪水":"◎","がけ崩れ、土石流及び地滑り":"◎","高潮":"","地震":"","津波":"","大規模な火事":"","内水氾濫":"","火山現象":""}},{"type":"Feature","geometry":{"type":"Point","coordinates":[132.449992,34.395362]},"properties":{"指定緊急避難場所":"本川児童館","所在地":"広島県広島市中区本川町1-5-24","洪水":"◎","がけ崩れ、土石流及び地滑り":"◎","高潮":"◎","地震":"","津波":"","大規模な火事":"","内水氾濫":"","火山現象":""}},{"type":"Feature","geometry":{"type":"Point","coordinates":[132.449923,34.395186]},"properties":{"指定緊急避難場所":"本川保育園","所在地":"広島県広島市中区本川町1-5-24","洪水":"◎","がけ崩れ、土石流及び地滑り":"◎","高潮":"◎","地震":"","津波":"","大規模な火事":"","内水氾濫":"","火山現象":""}},{"type":"Feature","geometry":{"type":"Point","coordinates":[132.450559,34.395936]},"properties":{"指定緊急避難場所":"本川小学校","所在地":"広島県広島市中区本川町1-5-39","洪水":"◎","がけ崩れ、土石流及び地滑り":"◎","高潮":"◎","地震":"◎","津波":"","大規模な火事":"","内水氾濫":"","火山現象":""}},{"type":"Feature","geometry":{"type":"Point","coordinates":[132.466474,34.396547]},"properties":{"指定緊急避難場所":"幟町小学校","所在地":"広島県広島市中区幟町3-10","洪水":"◎","がけ崩れ、土石流及び地滑り":"◎","高潮":"◎","地震":"◎","津波":"","大規模な火事":"","内水氾濫":"","火山現象":""}},{"type":"Feature","geometry":{"type":"Point","coordinates":[132.466299,34.396989]},"properties":{"指定緊急避難場所":"幟町児童館","所在地":"広島県広島市中区幟町3-49","洪水":"◎","がけ崩れ、土石流及び地滑り":"◎","高潮":"◎","地震":"","津波":"","大規模な火事":"","内水氾濫":"","火山現象":""}}]}